     2.100          NAVIGATION                              RINEX VERSION / TYPE
fic2rin                                 08/29/2011 00:08:38 PGM / RUN BY / DATE
                                                            END OF HEADER
21 11  8 28  1 59 44.0 -.167573336512D-03 -.250111042988D-11  .000000000000D+00
     .100000000000D+01  .593125000000D+02  .530450666828D-08  .261206932651D+01
     .291876494884D-05  .180633111158D-01  .973977148533D-05  .515372248840D+04
     .718400000000D+04 -.167638063431D-07 -.261333573958D+01 -.249594449997D-06
     .931840248121D+00  .176562500000D+03 -.233459920950D+01 -.813212444991D-08
     .727173146823D-09  .100000000000D+01  .165100000000D+04  .000000000000D+00
     .240000000000D+01  .000000000000D+00 -.116415321827D-07  .100000000000D+01
     .516000000000D+03  .400000000000D+01
25 11  8 28  1 59 44.0  .160117633641D-04  .181898940355D-11  .000000000000D+00
     .600000000000D+01 -.423750000000D+02  .479269963518D-08  .173753289764D+01
    -.216253101826D-05  .104069767985D-02  .141188502312D-05  .515360212898D+04
     .718400000000D+04 -.558793544769D-07  .155505833017D+01 -.204890966415D-07
     .964801834680D+00  .351531250000D+03  .992993300351D+00 -.860964434053D-08
    -.842892252703D-10  .100000000000D+01  .165100000000D+04  .000000000000D+00
     .240000000000D+01  .000000000000D+00  .558793544769D-08  .600000000000D+01
     .516600000000D+04  .400000000000D+01
15 11  8 28  1 59 44.0 -.108789186925D-03  .170530256582D-11  .000000000000D+00
     .150000000000D+02 -.103437500000D+02  .454054627483D-08 -.608828380946D+00
    -.610947608948D-06  .356935895979D-02  .124163925648D-04  .515367155457D+04
     .718400000000D+04  .102445483208D-06 -.546147288838D+00 -.502914190292D-07
     .948954024110D+00  .137593750000D+03 -.718786687322D-01 -.798568977889D-08
    -.612525514146D-09  .100000000000D+01  .165100000000D+04  .000000000000D+00
     .240000000000D+01  .000000000000D+00 -.102445483208D-07  .150000000000D+02
     .579600000000D+04  .400000000000D+01
15 11  8 28  3 59 44.0 -.108777079731D-03  .170530256582D-11  .000000000000D+00
     .160000000000D+02 -.218437500000D+02  .464733643736D-08  .441549640955D+00
    -.124610960484D-05  .357080448885D-02  .116843730211D-04  .515367439461D+04
     .143840000000D+05  .167638063431D-07 -.546205075565D+00  .316649675369D-07
     .948949019467D+00  .145156250000D+03 -.720756667437D-01 -.809962309610D-08
    -.635026451401D-09  .100000000000D+01  .165100000000D+04  .000000000000D+00
     .240000000000D+01  .000000000000D+00 -.102445483208D-07  .160000000000D+02
     .720600000000D+04  .400000000000D+01
21 11  8 28  3 59 44.0 -.167591497302D-03 -.250111042988D-11  .000000000000D+00
     .200000000000D+01  .677500000000D+02  .524879006175D-08 -.262098056179D+01
     .311993062496D-05  .180621943437D-01  .943988561630D-05  .515372453499D+04
     .143840000000D+05  .171363353729D-06 -.261339486634D+01 -.227242708206D-06
     .931845510237D+00  .181687500000D+03 -.233457892321D+01 -.818748389871D-08
     .818962684512D-09  .100000000000D+01  .165100000000D+04  .000000000000D+00
     .240000000000D+01  .000000000000D+00 -.116415321827D-07  .200000000000D+01
     .720600000000D+04  .400000000000D+01
25 11  8 28  3 59 44.0  .160248018801D-04  .181898940355D-11  .000000000000D+00
     .700000000000D+01 -.372812500000D+02  .469233831187D-08  .278737618788D+01
    -.188685953617D-05  .104001932777D-02  .131689012051D-05  .515360352707D+04
     .143840000000D+05  .279396772385D-07  .155499672669D+01  .186264514923D-08
     .964801610854D+00  .355718750000D+03  .993376121143D+00 -.852178353792D-08
    -.907180644858D-10  .100000000000D+01  .165100000000D+04  .000000000000D+00
     .240000000000D+01  .000000000000D+00  .558793544769D-08  .700000000000D+01
     .720600000000D+04  .400000000000D+01
 1 11  8 28  4  0  0.0 -.861287117004D-05 -.147792889038D-11  .000000000000D+00
     .820000000000D+02  .474062500000D+02  .465947980032D-08 -.305545298397D+01
     .238418579102D-05  .257008126937D-03  .102091580629D-04  .515366792488D+04
     .144000000000D+05  .540167093277D-07 -.263055692594D+01  .111758708954D-07
     .960540837079D+00  .180687500000D+03  .205568269514D+01 -.806819321549D-08
     .760031658369D-09  .100000000000D+01  .165100000000D+04  .000000000000D+00
     .240000000000D+01  .630000000000D+02  .791624188423D-08  .820000000000D+02
     .720600000000D+04  .400000000000D+01
 2 11  8 28  4  0  0.0  .353277660906D-03  .170530256582D-11  .000000000000D+00
     .380000000000D+02  .501250000000D+02  .520235955630D-08 -.248274581907D+00
     .276044011116D-05  .104140928015D-01  .955909490585D-05  .515380626488D+04
     .144000000000D+05  .113621354103D-06 -.263839289156D+01  .931322574615D-08
     .939151200240D+00  .184687500000D+03 -.294794454897D+01 -.844856620241D-08
     .691814531138D-09  .100000000000D+01  .165100000000D+04  .000000000000D+00
     .240000000000D+01  .000000000000D+00 -.172294676304D-07  .380000000000D+02
     .720600000000D+04  .400000000000D+01
 3 11  8 28  4  0  0.0  .760592520237D-03  .500222085975D-11  .000000000000D+00
     .740000000000D+02 -.111468750000D+03  .506413951317D-08 -.524070608616D-01
    -.583007931709D-05  .147218633210D-01  .106338411570D-04  .515367875481D+04
     .144000000000D+05 -.108033418655D-06  .248587543826D+01  .232830643654D-06
     .929638377936D+00  .161125000000D+03  .112446379221D+01 -.863143096232D-08
    -.238581366443D-09  .100000000000D+01  .165100000000D+04  .000000000000D+00
     .240000000000D+01  .000000000000D+00 -.465661287308D-08  .740000000000D+02
     .720600000000D+04  .400000000000D+01
 4 11  8 28  4  0  0.0  .214259605855D-03  .111413100967D-10  .000000000000D+00
     .250000000000D+02  .485937500000D+02  .512521348571D-08  .300226817588D+01
     .246055424213D-05  .972894392908D-02  .102967023849D-04  .515369740295D+04
     .144000000000D+05 -.502914190292D-07 -.262115564236D+01 -.186264514923D-06
     .938220592699D+00  .170625000000D+03  .753385219233D+00 -.811033782812D-08
     .697529054885D-09  .100000000000D+01  .165100000000D+04  .000000000000D+00
     .240000000000D+01  .000000000000D+00 -.651925802231D-08  .250000000000D+02
     .720600000000D+04  .400000000000D+01
 5 11  8 28  4  0  0.0 -.210115686059D-03 -.534328137292D-11  .000000000000D+00
     .430000000000D+02 -.221250000000D+02  .547665669616D-08  .183471643574D+01
    -.966712832451D-06  .234895001631D-02  .376999378204D-05  .515373129272D+04
     .144000000000D+05  .558793544769D-07 -.157590738074D+01  .126659870148D-06
     .952861870362D+00  .303531250000D+03  .143576794356D+00 -.865821779238D-08
    -.171792870148D-09  .100000000000D+01  .165100000000D+04  .000000000000D+00
     .240000000000D+01  .000000000000D+00 -.102445483208D-07  .430000000000D+02
     .720600000000D+04  .400000000000D+01
 6 11  8 28  4  0  0.0 -.851601362228D-04  .966338120634D-11  .000000000000D+00
     .730000000000D+02 -.111343750000D+03  .475019786481D-08  .194456154298D+01
    -.582262873650D-05  .669733667746D-02  .114515423775D-04  .515371908188D+04
     .144000000000D+05  .838190317154D-07  .256025402918D+01  .838190317154D-07
     .936760669213D+00  .144906250000D+03 -.699124377839D+00 -.814998233662D-08
    -.264653881039D-09  .100000000000D+01  .165100000000D+04  .000000000000D+00
     .340000000000D+01  .000000000000D+00 -.465661287308D-08  .730000000000D+02
     .720600000000D+04  .400000000000D+01
 7 11  8 28  4  0  0.0  .240243971348D-04  .170530256582D-11  .000000000000D+00
     .930000000000D+02  .127468750000D+03  .405874049140D-08 -.170855979045D+01
     .654719769955D-05  .491459481418D-02  .878795981407D-05  .515364269257D+04
     .144000000000D+05 -.447034835815D-07  .530426354227D+00 -.800937414169D-07
     .975142909999D+00  .218437500000D+03 -.309718171423D+01 -.794175937758D-08
     .462876423518D-09  .100000000000D+01  .165100000000D+04  .000000000000D+00
     .240000000000D+01  .000000000000D+00 -.107102096081D-07  .930000000000D+02
     .720600000000D+04  .400000000000D+01
 8 11  8 28  4  0  0.0  .902311876416D-05  .113686837722D-12  .000000000000D+00
     .790000000000D+02  .125031250000D+03  .365550940950D-08 -.219010840441D+01
     .633113086224D-05  .120120643405D-01  .815093517303D-05  .515375355339D+04
     .144000000000D+05 -.856816768646D-07  .607873556259D+00 -.212341547012D-06
     .996911176369D+00  .242250000000D+03 -.304706514567D+01 -.773496504948D-08
     .528593446610D-09  .100000000000D+01  .165100000000D+04  .000000000000D+00
     .240000000000D+01  .000000000000D+00 -.419095158577D-08  .790000000000D+02
     .720600000000D+04  .400000000000D+01
 9 11  8 28  4  0  0.0  .101953279227D-03  .238742359215D-11  .000000000000D+00
     .260000000000D+02  .127625000000D+03  .374622747398D-08 -.242250730862D+01
     .665336847305D-05  .173152667703D-01  .843405723572D-05  .515366635895D+04
     .144000000000D+05  .203028321266D-06  .502681274601D+00  .968575477600D-07
     .984034768929D+00  .228968750000D+03  .159754085823D+01 -.755602902465D-08
     .339657005220D-09  .100000000000D+01  .165100000000D+04  .000000000000D+00
     .240000000000D+01  .000000000000D+00 -.558793544769D-08  .260000000000D+02
     .720600000000D+04  .400000000000D+01
10 11  8 28  4  0  0.0 -.113085843623D-04 -.113686837722D-11  .000000000000D+00
     .410000000000D+02 -.197500000000D+02  .555558855542D-08  .205459210580D+01
    -.111572444439D-05  .103422616376D-01  .397302210331D-05  .515361944771D+04
     .144000000000D+05 -.255182385445D-06 -.155274295071D+01 -.838190317154D-07
     .947792446674D+00  .298843750000D+03  .704971576553D+00 -.860928718280D-08
    -.173578658819D-09  .100000000000D+01  .165100000000D+04  .000000000000D+00
     .340000000000D+01  .000000000000D+00 -.232830643654D-08  .410000000000D+02
     .720600000000D+04  .400000000000D+01
